173P/Mueller,e,16.4915,100.3524,29.2109,5.713325,0.0721723,0.26213237,69.4296,08/05.0/2024,2000,g  7.5,4.0
# From MPC 92985
174P/Echeclus,e,4.3425,173.3091,163.4467,10.75708,0.0279359,0.45563010,94.7421,08/05.0/2024,2000,g  9.4,2.0
# From MPC114608
175P/Hergenrother,e,4.9162,109.9869,75.0613,3.678519,0.1396994,0.37856939,254.0024,08/05.0/2024,2000,g 14.0,4.0
# From MPC 89015
176P/LINEAR,e,0.2313,345.6320,34.4521,3.194555,0.1726190,0.19215161,107.6965,08/05.0/2024,2000,g 15.1,2.0
# From MPEC 2020-L06
177P/Barnard,e,31.0324,271.9177,60.6686,24.51683,0.0081191,0.95457897,53.1461,08/05.0/2024,2000,g 15.0,4.0
# From MPEC 2021-F20
178P/Hug-Bell,e,11.0908,102.7925,297.9393,3.632813,0.1423441,0.48248223,210.5359,08/05.0/2024,2000,g 14.6,4.0
# From MPEC 2024-EF7
179P/Jedicke,e,19.8924,115.5133,297.1368,5.935532,0.0681576,0.30572563,54.2730,08/05.0/2024,2000,g  2.5,8.0
# From MPEC 2024-F34
180P/NEAT,e,16.8618,84.5597,94.6356,3.868320,0.1295449,0.35362477,50.5100,08/05.0/2024,2000,g 11.0,4.0
# From MPC 89012
181P/Shoemaker-Levy,e,17.4813,35.4256,336.2941,3.878120,0.1290542,0.70019280,121.2296,08/05.0/2024,2000,g 11.5,4.0
# From MPEC 2014-J10
182P/LONEOS,e,16.2319,72.4501,54.2047,2.949262,0.1945961,0.66367716,158.6968,08/05.0/2024,2000,g 18.0,4.0
# From MPEC 2023-A50
183P/Korlevic-Juric,e,18.7793,3.7827,164.1087,4.694635,0.0968950,0.10290546,248.4873,08/05.0/2024,2000,g 12.5,2.0
# From MPEC 2020-W26
184P/Lovas,e,4.5721,173.2747,186.5628,3.799623,0.1330740,0.55026846,183.5070,08/05.0/2024,2000,g 13.5,4.0
# From MPEC 2024-F91
185P/Petriew,e,14.0140,214.1165,181.9050,3.098893,0.1806734,0.69964788,70.3032,08/05.0/2024,2000,g 15.0,4.0
# From MPEC 2022-X67
186P/Garradd,e,28.6276,326.0596,268.9176,4.852036,0.0922185,0.12421906,189.2332,08/05.0/2024,2000,g  7.5,4.0
# From MPEC 2020-SI8
187P/LINEAR,e,13.6552,109.8436,131.2264,4.557623,0.1012970,0.15455934,230.6091,08/05.0/2024,2000,g  9.0,4.0
# From MPEC 2023-J29
188P/LINEAR-Mueller,e,10.5237,358.9307,26.7729,4.367239,0.1079925,0.41689321,293.4676,08/05.0/2024,2000,g 11.5,4.0
# From MPEC 2022-QD9
189P/NEAT,e,20.1003,281.6724,16.2374,2.942319,0.1952853,0.58944881,138.0901,08/05.0/2024,2000,g 19.0,4.0
# From MPEC 2024-P23
190P/Mueller,e,2.1747,335.5025,50.5153,4.226672,0.1134243,0.52218740,343.9937,08/05.0/2024,2000,g 13.0,4.0
# From MPEC 2022-X67
191P/McNaught,e,8.8391,98.1869,284.2517,3.639856,0.1419312,0.38554632,175.0715,08/05.0/2024,2000,g 13.0,4.0
# From MPEC 2024-P23
192P/Shoemaker-Levy,e,24.5892,51.6125,313.0910,6.463372,0.0599812,0.77341441,4.3456,08/05.0/2024,2000,g 15.0,4.0
# From MPEC 2024-JU4
193P/LINEAR-NEAT,e,10.6826,335.1883,8.1353,3.578535,0.1455949,0.39298510,156.7158,08/05.0/2024,2000,g 14.0,4.0
# From MPEC 2024-GJ3
194P/LINEAR,e,11.8054,349.5249,128.5735,4.120567,0.1178335,0.56325702,21.5347,08/05.0/2024,2000,g 16.0,4.0
# From MPEC 2024-GJ3
195P/Hill,e,36.4253,243.1139,250.2997,6.466142,0.0599427,0.31295107,338.2351,08/05.0/2024,2000,g  8.5,4.0
# From MPEC 2024-GJ3
196P/Tichy,e,19.3002,24.1177,12.1022,3.804929,0.1327958,0.42785885,85.7391,08/05.0/2024,2000,g 13.5,4.0
# From MPEC 2023-UR6
197P/LINEAR,e,25.6568,66.2314,189.4386,2.887392,0.2008841,0.62763702,121.6256,08/05.0/2024,2000,g 16.5,2.0
# From NK 1596
198P/ODAS,e,1.3389,358.2009,69.3054,3.593940,0.1446598,0.44478868,297.6972,08/05.0/2024,2000,g  9.0,4.0
# From MPEC 2024-L77
199P/Shoemaker,e,24.9387,92.3480,191.7713,5.876886,0.0691804,0.50475258,25.1443,08/05.0/2024,2000,g 10.0,4.0
# From MPEC 2022-C56
200P/Larsen,e,12.0964,234.8044,134.3791,4.950887,0.0894704,0.33180030,164.0091,08/05.0/2024,2000,g  9.0,4.0
# From MPC 93588
201P/LONEOS,e,5.7392,41.5375,19.7746,3.354761,0.1604027,0.63758931,186.9560,08/05.0/2024,2000,g 14.0,4.0
# From MPEC 2023-XP6
202P/Scotti,e,2.1416,177.3074,274.4945,4.101566,0.1186532,0.25158363,9.4472,08/05.0/2024,2000,g 13.5,4.0
# From MPEC 2021-S45
203P/Korlevic,e,2.9746,290.2451,154.8609,4.668566,0.0977077,0.31631832,157.5591,08/05.0/2024,2000,g 14.5,2.0
# From MPEC 2024-JU4
204P/LINEAR-NEAT,e,6.5968,108.4798,356.6987,3.583682,0.1452813,0.48819186,91.0860,08/05.0/2024,2000,g 14.0,4.0
# From MPEC 2023_O39
205P/Giacobini,e,15.3035,179.6158,154.1795,3.542726,0.1478079,0.56743620,138.1722,08/05.0/2024,2000,g 13.0,4.0
# From MPC 75725
206P/Barnard-Boattini,e,33.6304,202.3508,189.5605,3.491088,0.1510994,0.55137201,188.7167,08/05.0/2024,2000,g 19.0,4.0
# From MPEC 2024-NE4
207P/NEAT,e,10.2009,198.1551,272.9978,3.884435,0.1287396,0.75844798,23.9684,08/05.0/2024,2000,g 16.0,4.0
# From MPEC 2024-NE4
208P/McMillan,e,4.4121,36.3362,310.6689,4.038129,0.1214602,0.37385496,357.7071,08/05.0/2024,2000,g 12.5,4.0
# From MPEC 2024-P23
209P/LINEAR,e,21.2825,62.7697,152.4938,2.958711,0.1936646,0.67404175,4.1644,08/05.0/2024,2000,g 17.0,2.0
# From MPC105242
210P/Christensen,e,10.2807,93.8241,345.9024,3.161827,0.1753061,0.83403923,276.7814,08/05.0/2024,2000,g 13.5,4.0
# From MPEC 2024-JU4
211P/Hill,e,18.9209,117.1076,4.3232,3.548832,0.1474266,0.34430390,98.8010,08/05.0/2024,2000,g 12.5,4.0
# From MPEC 2024-GJ3
212P/NEAT,e,22.1487,97.9753,14.0267,3.901026,0.1279192,0.58665528,13.0347,08/05.0/2024,2000,g 17.0,2.0
# From MPEC 2022-GA9
213P/Van Ness,e,10.3804,311.2850,5.8367,3.347372,0.1609341,0.40827620,42.9793,08/05.0/2024,2000,g 10.5,4.0
# From MPC 76570
213P-B/Van Ness,e,10.3771,5.7279,311.4031,3.347742,0.1609074,0.40844347,42.8265,08/05.0/2024,2000,g 17.0,4.0
# From MPC 76570
213P-C/Van Ness,e,10.3745,5.7090,311.4053,3.347118,0.1609524,0.40828357,43.1065,08/05.0/2024,2000,g 17.5,4.0
# From MPC 92986
214P/LINEAR,e,15.1872,348.2178,190.1354,3.617401,0.1432548,0.48596510,97.2498,08/05.0/2024,2000,g 13.0,4.0
# From MPEC 2024-F91
215P/NEAT,e,10.5765,56.6735,262.3756,4.334185,0.1092303,0.16524355,188.1936,08/05.0/2024,2000,g 11.0,4.0
# From MPEC 2024-N80
216P/LINEAR,e,9.0625,359.7970,151.7410,3.859095,0.1300097,0.44881336,27.4454,08/05.0/2024,2000,g 13.0,4.0
# From MPEC 2024-LE0
217P/LINEAR,e,12.8642,125.3758,247.0223,3.945936,0.1257416,0.68919414,323.1674,08/05.0/2024,2000,g 12.0,4.0
# From MPEC 2022-K19
218P/LINEAR,e,2.7243,175.3499,60.3812,3.074636,0.1828157,0.62935402,254.6996,08/05.0/2024,2000,g 16.0,4.0
# From MPEC 2024-N80
219P/LINEAR,e,11.5399,230.9532,107.6571,3.646561,0.1415399,0.35419547,24.4960,08/05.0/2024,2000,g 11.0,4.0
# From MPEC 2024-A43
220P/McNaught,e,8.1227,150.1014,180.6073,3.119310,0.1789024,0.50062149,238.6915,08/05.0/2024,2000,g 15.0,4.0
# From MPEC 2022-UY9
221P/LINEAR,e,11.4950,229.5437,39.2945,3.426011,0.1554250,0.50454894,148.4160,08/05.0/2024,2000,g 14.5,4.0
# From MPC 92277
222P/LINEAR,e,5.0960,6.7821,346.2860,2.897880,0.1997945,0.71472965,16.8038,08/05.0/2024,2000,g 20.0,4.0
# From MPEC 2023-A50
223P/Skiff,e,27.0095,346.7315,37.9520,4.158236,0.1162359,0.41647269,234.0674,08/05.0/2024,2000,g 12.0,4.0
# From MPEC 2024-L77
224P/LINEAR-NEAT,e,13.3049,40.0394,16.7715,3.446005,0.1540743,0.40582054,103.9742,08/05.0/2024,2000,g 15.5,4.0
# From MPEC 2024-F91
225P/LINEAR,e,21.3656,14.2032,3.9019,3.647313,0.1414961,0.63838596,51.3629,08/05.0/2024,2000,g 18.0,4.0
# From MPEC 2024-MB8
226P/Pigott-LINEAR-Kowalski,e,44.0455,54.0115,341.0316,3.765973,0.1348616,0.52906779,29.9195,08/05.0/2024,2000,g 12.5,4.0
# From MPEC 2024-O39
227P/Catalina-LINEAR,e,7.5084,36.8095,105.5736,3.436597,0.1547075,0.52754288,23.1659,08/05.0/2024,2000,g 16.5,2.0
# From MPEC 2022-HC2
228P/LINEAR,e,7.9138,30.9697,114.7383,4.163886,0.1159994,0.17696262,186.8642,08/05.0/2024,2000,g 14.1,4.0
# From MPC106349
229P/Gibbs,e,26.1011,157.9330,224.1401,3.923371,0.1268280,0.37792660,333.0204,08/05.0/2024,2000,g 13.0,4.0
# From MPEC 2024-P23
230P/LINEAR,e,15.4698,106.9396,313.5439,3.454427,0.1535112,0.54563896,133.4631,08/05.0/2024,2000,g 13.0,4.0
# From MPEC 2023-SQ0
231P/LINEAR-NEAT,e,12.2727,132.8413,43.9851,4.056195,0.1206496,0.24048446,227.7700,08/05.0/2024,2000,g 14.5,2.0
# From MPC112394
232P/Hill,e,14.6439,56.0265,53.2324,4.471701,0.1042305,0.33577319,202.8546,08/05.0/2024,2000,g 11.5,4.0
# From MPEC 2021-N06
233P/La Sagra,e,11.2888,74.9007,26.9972,3.027033,0.1871450,0.41282723,262.4672,08/05.0/2024,2000,g 15.0,4.0
# From MPEC 2024-DC6
234P/LINEAR,e,11.5353,179.5675,357.4212,3.796240,0.1332519,0.25693502,349.3956,08/05.0/2024,2000,g 12.0,4.0
# From MPC110497
235P/LINEAR,e,9.6108,203.7528,348.3687,3.500038,0.1505203,0.40664815,280.4329,08/05.0/2024,2000,g 12.0,4.0
# From MPEC 2024-P23
236P/LINEAR,e,16.3557,245.5694,119.4055,3.725175,0.1370831,0.50924084,334.9433,08/05.0/2024,2000,g 14.0,4.0
# From MPEC 2024-L77
237P/LINEAR,e,14.0177,245.3518,25.3621,3.512274,0.1497343,0.43378659,67.1109,08/05.0/2024,2000,g 14.5,2.0
# From MPEC 2024-L77
238P/Read,e,1.2640,51.6382,324.2612,3.166446,0.1749226,0.25101954,138.4790,08/05.0/2024,2000,g 14.5,4.0
# From MPEC 2021-F20
239P/LINEAR,e,11.3080,255.9477,220.3481,4.465153,0.1044599,0.63119520,212.4190,08/05.0/2024,2000,g 17.5,2.0
# From MPEC 2024-O39
240P/NEAT,e,23.5371,74.9164,352.0290,3.861397,0.1298935,0.45034143,294.8047,08/05.0/2024,2000,g 11.0,4.0
# From MPEC 2022-J42
241P/LINEAR,e,21.0950,305.4505,111.5458,4.925726,0.0901568,0.61041044,99.6920,08/05.0/2024,2000,g 13.5,4.0
# From MPEC 2024-L77
242P/Spahr,e,32.4442,180.3389,244.8631,5.533044,0.0757282,0.28219999,349.3893,08/05.0/2024,2000,g  8.0,4.0
# From MPEC 2022-K19
243P/NEAT,e,7.6439,87.6483,283.6734,3.828175,0.1315881,0.36051266,285.0770,08/05.0/2024,2000,g 12.5,4.0
# From MPEC 2024-L77
244P/Scotti,e,2.2585,354.0099,93.3388,4.901638,0.0908223,0.19985144,56.7592,08/05.0/2024,2000,g  9.0,4.0
# From MPEC 2022-CN4
245P/WISE,e,21.1744,316.8893,316.5393,4.050781,0.1208916,0.45567941,287.0621,08/05.0/2024,2000,g 14.0,4.0
# From MPEC 2024-L77
246P/NEAT,e,17.6377,74.3152,184.7001,4.156384,0.1163136,0.26189811,148.4897,08/05.0/2024,2000,g 10.5,4.0
# From MPEC 2021-F20
247P/LINEAR,e,13.6586,54.0054,47.4544,3.965315,0.1248210,0.62541711,258.6456,08/05.0/2024,2000,g 16.5,2.0
# From MPC 75730
248P/Gibbs,e,6.3515,207.8129,209.9478,5.984211,0.0673277,0.63934024,332.6733,08/05.0/2024,2000,g 14.0,4.0
# From MPEC 2022-YN2
